ONEWEB-0349             
1 49281U 21090C   26199.74279380  .00000080  00000+0  16502-3 0  9997
2 49281  87.9183 268.1534 0002081  97.7828 262.3541 13.20770668233992
ONEWEB-0353             
1 49282U 21090D   26199.72347169 -.00000273  00000+0 -77107-3 0  9991
2 49282  87.8967 283.4219 0002007 107.3065 252.8285 13.14502735231720
ONEWEB-0356             
1 49283U 21090E   26199.74111655  .00000084  00000+0  17495-3 0  9995
2 49283  87.9180 268.1471 0001249  98.7317 261.3958 13.20771663233997
ONEWEB-0358             
1 49284U 21090F   26199.70153971  .00000048  00000+0  87253-4 0  9999
2 49284  87.9183 268.1625 0001930  95.4438 264.6915 13.20770639234719
ONEWEB-0359             
1 49285U 21090G   26199.69229024  .00000006  00000+0 -15979-4 0  9992
2 49285  87.9181 268.1566 0002081  90.2108 269.9263 13.20770121234694
ONEWEB-0360             
1 49286U 21090H   26199.68220591  .00000043  00000+0  73205-4 0  9998
2 49286  87.9180 268.1652 0002194  97.1812 262.9571 13.20771543234002
ONEWEB-0361             
1 49287U 21090J   26199.73942167  .00000055  00000+0  10269-3 0  9998
2 49287  87.9183 268.1520 0001981  94.6450 265.4909 13.20773158234460
ONEWEB-0362             
1 49288U 21090K   26199.79281061  .00001304  00000+0  32230-2 0  9993
2 49288  87.9186 298.6850 0002315 100.3023 259.8371 13.19738520231088
ONEWEB-0363             
1 49289U 21090L   26199.75458309 -.00000452  00000+0 -11448-2 0  9994
2 49289  87.9184 268.1494 0001821  96.3713 263.7628 13.20774462234476
ONEWEB-0364             
1 49290U 21090M   26199.64178770  .00000002  00000+0 -26805-4 0  9990
2 49290  87.9182 268.1792 0002101  99.3824 260.7547 13.20770585235598
ONEWEB-0365             
1 49291U 21090N   26199.80230612 -.00000034  00000+0 -11784-3 0  9998
2 49291  87.9193 298.6732 0002082 102.4173 257.7193 13.19726132230599
ONEWEB-0366             
1 49292U 21090P   26199.72030619 -.00000204  00000+0 -58347-3 0  9990
2 49292  87.8965 283.4238 0002027  98.1673 261.9687 13.14502522231703
ONEWEB-0367             
1 49293U 21090Q   26199.67797600  .00000069  00000+0  13839-3 0  9999
2 49293  87.9182 268.1660 0002220 100.5663 259.5720 13.20773592233984
ONEWEB-0368             
1 49294U 21090R   26199.72765909  .00000344  00000+0  81369-3 0  9992
2 49294  87.9183 268.1606 0001827 125.6713 234.4591 13.20765100235146
ONEWEB-0369             
1 49295U 21090S   26199.79756730 -.00000062  00000+0 -18687-3 0  9994
2 49295  87.9183 298.6793 0001997 103.2857 256.8499 13.19726545230587
ONEWEB-0370             
1 49296U 21090T   26199.68724536  .00000046  00000+0  80794-4 0  9991
2 49296  87.9183 268.1633 0002321  92.8548 267.2851 13.20772069234020
